ORBCOMM FM20 [+]        
1 25416U 98046D   23331.09416952  .00001702  00000+0  64579-3 0  9996
2 25416  44.9964 345.7526 0002502 268.0977  91.9583 14.34635118322611
ORBCOMM FM16 [-]        
1 25417U 98046E   23331.56998430  .00002910  00000+0  10526-2 0  9999
2 25417  44.9952 340.3720 0005598 307.0675  52.9660 14.35402473322602
ORBCOMM FM15 [-]        
1 25418U 98046F   23331.42724987  .00002330  00000+0  85696-3 0  9996
2 25418  44.9988 344.7369 0005046 305.7738  54.2639 14.35151618322593
ORBCOMM FM14 [-]        
1 25419U 98046G   23331.42548541  .00002448  00000+0  89567-3 0  9998
2 25419  44.9979 344.0484 0004295 293.6541 206.6210 14.35274166322544
ORBCOMM FM13 [+]        
1 25420U 98046H   23331.09123386  .00002038  00000+0  76259-3 0  9998
2 25420  44.9990 349.6634 0006393 295.1301  64.8882 14.34690576321576
ORBCOMM FM21 [-]        
1 25475U 98053A   23331.24782347  .00002059  00000+0  77000-3 0  9999
2 25475  45.0091  73.0607 0002104 231.5437 128.5221 14.34699363315614
ORBCOMM FM22 [-]        
1 25476U 98053B   23330.37315285  .00002639  00000+0  96553-3 0  9994
2 25476  45.0081  75.0593 0003774 236.4734 123.5753 14.35087705315479
ORBCOMM FM23 [-]        
1 25477U 98053C   23331.27812881  .00002372  00000+0  87961-3 0  9996
2 25477  45.0088  75.3663 0003118 236.3672 123.6877 14.34685767315761
